{
  "inspections": [
    {
      "id": "12345",
      "type": "damage",
      "status": "planned",
      "address": "kerkstraat 5",
      "postalCode": "1234AA",
      "city": "amsterdam"
    },
    {
      "id": "12346",
      "type": "damage",
      "status": "finished",
      "address": "kerkstraat 5",
      "postalCode": "1234AA",
      "city": "amsterdam"
    },
    {
      "id": "12347",
      "type": "damage",
      "status": "finished",
      "address": "kerkstraat 5",
      "postalCode": "1234AA",
      "city": "amsterdam"
    },
    {
      "id": "12348",
      "type": "damage",
      "status": "finished",
      "address": "kerkstraat 5",
      "postalCode": "1234AA",
      "city": "amsterdam"
    },
    {
      "id": "67890",
      "type": "modification",
      "status": "planned",
      "address": "kerkstraat 10",
      "postalCode": "1234AA",
      "city": "amsterdam"
    },
    {
      "id": "23456",
      "type": "damage",
      "status": "planned",
      "address": "kerkstraat 15",
      "postalCode": "1234AA",
      "city": "amsterdam"
    },
    {
      "id": "45678",
      "type": "installation",
      "status": "planned",
      "address": "kerkstraat 20",
      "postalCode": "1234AA",
      "city": "amsterdam"
    },
    {
      "id": "56789",
      "type": "maintenance",
      "status": "planned",
      "address": "kerkstraat 25",
      "postalCode": "1234AA",
      "city": "amsterdam"
    }
  ],
  "objectives": [
    {
      "id": "1",
      "type": "damage",
      "inspectionId": "12345",
      "status": "open",
      "location": "kitchen",
      "description": "some lengthy description"
    },
    {
      "id": "2",
      "type": "damage",
      "inspectionId": "12346",
      "status": "open",
      "location": "kitchen",
      "description": "some lengthy description"
    },
    {
      "id": "3",
      "type": "damage",
      "inspectionId": "12347",
      "status": "open",
      "location": "kitchen",
      "description": "some lengthy description"
    },
    {
      "id": "4",
      "type": "damage",
      "inspectionId": "12347",
      "status": "open",
      "location": "kitchen",
      "description": "some lengthy description"
    },
    {
      "id": "5",
      "type": "damage",
      "inspectionId": "12348",
      "status": "open",
      "location": "kitchen",
      "description": "some lengthy description"
    }
  ]
}
